$$SOE
2461295.500000000, A.D. 2026-Sep-12 00:00:00.0000, 5.255298358249301E+08, 1.768030417574562E+08, 9.031608125353388E+07,
2461302.500000000, A.D. 2026-Sep-19 00:00:00.0000, 5.216042593684658E+08, 1.841124508344236E+08, 9.132918348021945E+07,
2461309.500000000, A.D. 2026-Sep-26 00:00:00.0000, 5.175349984687268E+08, 1.913711009249412E+08, 9.231711962462610E+07,
2461316.500000000, A.D. 2026-Oct-03 00:00:00.0000, 5.133222690440373E+08, 1.985766557816021E+08, 9.327945627565527E+07,
2461323.500000000, A.D. 2026-Oct-10 00:00:00.0000, 5.089663096087022E+08, 2.057267560075550E+08, 9.421575785859263E+07,
2461330.500000000, A.D. 2026-Oct-17 00:00:00.0000, 5.044673821100891E+08, 2.128190184768528E+08, 9.512558660886569E+07,
2461337.500000000, A.D. 2026-Oct-24 00:00:00.0000, 4.998257727990459E+08, 2.198510356580341E+08, 9.600850254277305E+07,
2461344.500000000, A.D. 2026-Oct-31 00:00:00.0000, 4.950417932333028E+08, 2.268203747750102E+08, 9.686406341080166E+07,
2461351.500000000, A.D. 2026-Nov-07 00:00:00.0000, 4.901157817540675E+08, 2.337245768805054E+08, 9.769182460877950E+07,
2461358.500000000, A.D. 2026-Nov-14 00:00:00.0000, 4.850481056379837E+08, 2.405611567307277E+08, 9.849133910135737E+07,
2461365.500000000, A.D. 2026-Nov-21 00:00:00.0000, 4.798391621139011E+08, 2.473276041449619E+08, 9.926215758032089E+07,
2461372.500000000, A.D. 2026-Nov-28 00:00:00.0000, 4.744893772491488E+08, 2.540213838447037E+08, 1.000038287048145E+08,
2461379.500000000, A.D. 2026-Dec-05 00:00:00.0000, 4.689992063288918E+08, 2.606399331175004E+08, 1.007158990393070E+08,
2461386.500000000, A.D. 2026-Dec-12 00:00:00.0000, 4.633691358960406E+08, 2.671806604169669E+08, 1.013979129291628E+08,
2461393.500000000, A.D. 2026-Dec-19 00:00:00.0000, 4.575996855663037E+08, 2.736409449064947E+08, 1.020494124880979E+08,
2461400.500000000, A.D. 2026-Dec-26 00:00:00.0000, 4.516914094780778E+08, 2.800181360800824E+08, 1.026699376404060E+08,
2461407.500000000, A.D. 2027-Jan-02 00:00:00.0000, 4.456448976549556E+08, 2.863095532709138E+08, 1.032590261777778E+08,
2461414.500000000, A.D. 2027-Jan-09 00:00:00.0000, 4.394607773993569E+08, 2.925124850695248E+08, 1.038162138223209E+08,
2461421.500000000, A.D. 2027-Jan-16 00:00:00.0000, 4.331397147537740E+08, 2.986241886622677E+08, 1.043410342939409E+08,
2461428.500000000, A.D. 2027-Jan-23 00:00:00.0000, 4.266824160765059E+08, 3.046418890526233E+08, 1.048330193753351E+08,
2461435.500000000, A.D. 2027-Jan-30 00:00:00.0000, 4.200896299205364E+08, 3.105627781200764E+08, 1.052916989542478E+08,
2461442.500000000, A.D. 2027-Feb-06 00:00:00.0000, 4.133621496414588E+08, 3.163840138591318E+08, 1.057166010325700E+08,
2461449.500000000, A.D. 2027-Feb-13 00:00:00.0000, 4.065008162749335E+08, 3.221027210203195E+08, 1.061072518446130E+08,
2461456.500000000, A.D. 2027-Feb-20 00:00:00.0000, 3.995065193198447E+08, 3.277159923651674E+08, 1.064631762371004E+08,
2461463.500000000, A.D. 2027-Feb-27 00:00:00.0000, 3.923801968249406E+08, 3.332208873262095E+08, 1.067838979214578E+08,
2461470.500000000, A.D. 2027-Mar-06 00:00:00.0000, 3.851228378004256E+08, 3.386144299985077E+08, 1.070689394798490E+08,
2461477.500000000, A.D. 2027-Mar-13 00:00:00.0000, 3.777354853564426E+08, 3.438936085154740E+08, 1.073178224397795E+08,
2461484.500000000, A.D. 2027-Mar-20 00:00:00.0000, 3.702192394410344E+08, 3.490553749786549E+08, 1.075300674534590E+08,
2461491.500000000, A.D. 2027-Mar-27 00:00:00.0000, 3.625752593821236E+08, 3.540966453974623E+08, 1.077051945196338E+08,
2461498.500000000, A.D. 2027-Apr-03 00:00:00.0000, 3.548047664390836E+08, 3.590142995963583E+08, 1.078427232265951E+08,
2461505.500000000, A.D. 2027-Apr-10 00:00:00.0000, 3.469090464277658E+08, 3.638051811181364E+08, 1.079421730139339E+08,
2461512.500000000, A.D. 2027-Apr-17 00:00:00.0000, 3.388894524435804E+08, 3.684660971150076E+08, 1.080030634512517E+08,
2461519.500000000, A.D. 2027-Apr-24 00:00:00.0000, 3.307474077642843E+08, 3.729938181718848E+08, 1.080249145230284E+08,
2461526.500000000, A.D. 2027-May-01 00:00:00.0000, 3.224844092346304E+08, 3.773850780968844E+08, 1.080072468961848E+08,
2461533.500000000, A.D. 2027-May-08 00:00:00.0000, 3.141020314430649E+08, 3.816365744349403E+08, 1.079495822051426E+08,
2461540.500000000, A.D. 2027-May-15 00:00:00.0000, 3.056019301956077E+08, 3.857449706649316E+08, 1.078514435710235E+08,
2461547.500000000, A.D. 2027-May-22 00:00:00.0000, 2.969858437234452E+08, 3.897068974969346E+08, 1.077123562882324E+08,
2461554.500000000, A.D. 2027-May-29 00:00:00.0000, 2.882555949821818E+08, 3.935189518122122E+08, 1.075318482534805E+08,
2461561.500000000, A.D. 2027-Jun-05 00:00:00.0000, 2.794130959306273E+08, 3.971776963875668E+08, 1.073094503145349E+08,
2461568.500000000, A.D. 2027-Jun-12 00:00:00.0000, 2.704603517828274E+08, 4.006796608450584E+08, 1.070446967599955E+08,
2461575.500000000, A.D. 2027-Jun-19 00:00:00.0000, 2.613994649027812E+08, 4.040213429022238E+08, 1.067371259061035E+08,
2461582.500000000, A.D. 2027-Jun-26 00:00:00.0000, 2.522326386213122E+08, 4.071992096722146E+08, 1.063862807356615E+08,
2461589.500000000, A.D. 2027-Jul-03 00:00:00.0000, 2.429621811062893E+08, 4.102096990334159E+08, 1.059917095796159E+08,
2461596.500000000, A.D. 2027-Jul-10 00:00:00.0000, 2.335905093209738E+08, 4.130492210896226E+08, 1.055529668407798E+08,
2461603.500000000, A.D. 2027-Jul-17 00:00:00.0000, 2.241201531040076E+08, 4.157141596958041E+08, 1.050696137558137E+08,
2461610.500000000, A.D. 2027-Jul-24 00:00:00.0000, 2.145537595243955E+08, 4.182008740021607E+08, 1.045412191792038E+08,
2461617.500000000, A.D. 2027-Jul-31 00:00:00.0000, 2.048940979200158E+08, 4.205057002687911E+08, 1.039673603744197E+08,
2461624.500000000, A.D. 2027-Aug-07 00:00:00.0000, 1.951440654163275E+08, 4.226249551197424E+08, 1.033476239283452E+08,
2461631.500000000, A.D. 2027-Aug-14 00:00:00.0000, 1.853066906199333E+08, 4.245549399985254E+08, 1.026816069818047E+08,
2461638.500000000, A.D. 2027-Aug-21 00:00:00.0000, 1.753851360973766E+08, 4.262919434774038E+08, 1.019689184469306E+08,
2461645.500000000, A.D. 2027-Aug-28 00:00:00.0000, 1.653827030627703E+08, 4.278322426438464E+08, 1.012091799985060E+08,
2461652.500000000, A.D. 2027-Sep-04 00:00:00.0000, 1.553028370854597E+08, 4.291721060854424E+08, 1.004020271547272E+08,
2461659.500000000, A.D. 2027-Sep-11 00:00:00.0000, 1.451491334114852E+08, 4.303077978303590E+08, 9.954711052324852E+07,
2461666.500000000, A.D. 2027-Sep-18 00:00:00.0000, 1.349253420189523E+08, 4.312355816130649E+08, 9.864409714931676E+07,
2461673.500000000, A.D. 2027-Sep-25 00:00:00.0000, 1.246353726214983E+08, 4.319517254087204E+08, 9.769267194090095E+07,
2461680.500000000, A.D. 2027-Oct-02 00:00:00.0000, 1.142832996783438E+08, 4.324525062854677E+08, 9.669253916833657E+07,
2461687.500000000, A.D. 2027-Oct-09 00:00:00.0000, 1.038733674146609E+08, 4.327342155922126E+08, 9.564342403805485E+07,
2461694.500000000, A.D. 2027-Oct-16 00:00:00.0000, 9.340999489427797E+07, 4.327931644493989E+08, 9.454507433195856E+07,
2461701.500000000, A.D. 2027-Oct-23 00:00:00.0000, 8.289778138076562E+07, 4.326256895597501E+08, 9.339726208984357E+07,
2461708.500000000, A.D. 2027-Oct-30 00:00:00.0000, 7.234151233512011E+07, 4.322281599725834E+08, 9.219978535207334E+07,
2461715.500000000, A.D. 2027-Nov-06 00:00:00.0000, 6.174616485829177E+07, 4.315969859529793E+08, 9.095247016277081E+07,
2461722.500000000, A.D. 2027-Nov-13 00:00:00.0000, 5.111691056151527E+07, 4.307286278991641E+08, 8.965517284587598E+07,
2461729.500000000, A.D. 2027-Nov-20 00:00:00.0000, 4.045911872815973E+07, 4.296196031415200E+08, 8.830778210919905E+07,
2461736.500000000, A.D. 2027-Nov-27 00:00:00.0000, 2.977836134486133E+07, 4.282664936105827E+08, 8.691022107124388E+07,
2461743.500000000, A.D. 2027-Dec-04 00:00:00.0000, 1.908041793730449E+07, 4.266659553072278E+08, 8.546244947033080E+07,
2461750.500000000, A.D. 2027-Dec-11 00:00:00.0000, 8.371279613946522E+06, 4.248147286264427E+08, 8.396446602558684E+07,
2461757.500000000, A.D. 2027-Dec-18 00:00:00.0000, -2.342847457916808E+06, 4.227096492091200E+08, 8.241631089402658E+07,
2461764.500000000, A.D. 2027-Dec-25 00:00:00.0000, -1.305553904625819E+07, 4.203476593306837E+08, 8.081806820578679E+07,
2461771.500000000, A.D. 2028-Jan-01 00:00:00.0000, -2.376015033589361E+07, 4.177258198486902E+08, 7.916986866994396E+07,
$$EOE